STARLINK-34615          
1 66321U 25253C   26068.41897537  .00028856  00000+0  10534-2 0  9994
2 66321  42.9927 213.9600 0001516 149.7735 210.3204 15.27600643 20203
KUIPER-00226            
1 67785U 26030X   26068.62629313  .00046834  00000+0  15530-2 0  9998
2 67785  51.8814 220.1252 0017713  64.2781 296.0030 15.30655594  5078
